STARLINK-34116          
1 63890U 25095A   26068.34792349  .00038061  00000+0  13849-2 0  9994
2 63890  42.9987 178.3202 0000891 237.4677 122.6089 15.27595514 47737
KUIPER-00209            
1 67776U 26030N   26068.61786546  .00035298  00000+0  11963-2 0  9997
2 67776  51.8838 220.0775 0012191  59.1967 301.0215 15.30161950  5077
