[{"OBJECT_NAME":"STARLINK-34116","OBJECT_ID":"2025-095A","EPOCH":"2026-03-09T08:21:00.589536","MEAN_MOTION":15.27595514,"ECCENTRICITY":8.912e-5,"INCLINATION":42.9987,"RA_OF_ASC_NODE":178.3202,"ARG_OF_PERICENTER":237.4677,"MEAN_ANOMALY":122.6089,"EPHEMERIS_TYPE":0,"CLASSIFICATION_TYPE":"U","NORAD_CAT_ID":63890,"ELEMENT_SET_NO":999,"REV_AT_EPOCH":4773,"BSTAR":0.0013848613,"MEAN_MOTION_DOT":0.00038061,"MEAN_MOTION_DDOT":0},{"OBJECT_NAME":"KUIPER-00209","OBJECT_ID":"2026-030N","EPOCH":"2026-03-09T14:49:43.575744","MEAN_MOTION":15.3016195,"ECCENTRICITY":0.0012191,"INCLINATION":51.8838,"RA_OF_ASC_NODE":220.0775,"ARG_OF_PERICENTER":59.1967,"MEAN_ANOMALY":301.0215,"EPHEMERIS_TYPE":0,"CLASSIFICATION_TYPE":"U","NORAD_CAT_ID":67776,"ELEMENT_SET_NO":999,"REV_AT_EPOCH":507,"BSTAR":0.0011963,"MEAN_MOTION_DOT":0.00035298,"MEAN_MOTION_DDOT":0}]
